NORAD_CAT_ID,OBJECT_NAME,OBJECT_TYPE,EPOCH,MEAN_MOTION,ECCENTRICITY,INCLINATION,RA_OF_ASC_NODE,ARG_OF_PERICENTER,MEAN_ANOMALY,BSTAR,MEAN_MOTION_DOT,MEAN_MOTION_DDOT,TLE_LINE0,TLE_LINE1,TLE_LINE2,SEMIMAJOR_AXIS,PERIOD,APOGEE,PERIGEE,DECAYED
50175.0,STARLINK-3291,PAYLOAD,2022-03-05 22:00:01,15.34420748,0.0001689,53.2176,346.4181,40.2202,72.2344,-0.021062,-0.00661759,0.0,0 STARLINK-3291,1 50175U 21125V   22064.91668981 -.00661759  00000-0 -21062-1 0  9999,2 50175  53.2176 346.4181 0001689  40.2202  72.2344 15.34420748  3682,6840.779,93.846,463.799,461.48800000000006,0.0
50175.0,STARLINK-3291,PAYLOAD,2022-03-06 14:00:01,15.33485365,0.0001561,53.2174,343.3052,51.4349,144.4914,-0.021538,-0.00657162,0.0,0 STARLINK-3291,1 50175U 21125V   22065.58334491 -.00657162  00000-0 -21538-1 0  9990,2 50175  53.2174 343.3052 0001561  51.4349 144.4914 15.33485365  3666,6843.56,93.904,466.49300000000005,464.357,0.0
50175.0,STARLINK-3291,PAYLOAD,2022-03-06 22:00:00,15.33019495,0.0001764,53.2176,341.7518,43.9449,192.9071,-0.02191,-0.00658619,0.0,0 STARLINK-3291,1 50175U 21125V   22065.91667824 -.00658619  00000-0 -21910-1 0  9998,2 50175  53.2176 341.7518 0001764  43.9449 192.9071 15.33019495 15111,6844.946,93.932,468.019,465.604,0.0
50175.0,STARLINK-3291,PAYLOAD,2022-03-07 12:00:00,15.32204306,0.0001437,53.2175,339.0335,63.5088,153.6152,-0.022553,-0.00660521,0.0,0 STARLINK-3291,1 50175U 21125V   22066.50001157 -.00660521  00000-0 -22553-1 0  9994,2 50175  53.2175 339.0335 0001437  63.5088 153.6152 15.32204306  3703,6847.374,93.982,470.223,468.255,0.0
50175.0,STARLINK-3291,PAYLOAD,2022-03-07 22:00:00,15.31621208,0.0001611,53.2177,337.0953,41.0689,315.1978,-0.022983,-0.00660873,0.0,0 STARLINK-3291,1 50175U 21125V   22066.91667824 -.00660873  00000-0 -22983-1 0  9995,2 50175  53.2177 337.0953 0001611  41.0689 315.1978 15.31621208  3648,6849.111999999999,94.018,472.08,469.87300000000016,0.0
50175.0,STARLINK-3291,PAYLOAD,2022-03-08 06:00:02,15.31153507,0.0001681,53.2172,335.5461,36.5886,358.4255,-0.023223,-0.00658256,0.0,0 STARLINK-3291,1 50175U 21125V   22067.25002315 -.00658256  00000-0 -23223-1 0  9991,2 50175  53.2172 335.5461 0001681  36.5886 358.4255 15.31153507 15312,6850.507,94.047,473.523,471.22,0.0
50175.0,STARLINK-3291,PAYLOAD,2022-03-08 14:00:01,15.30685918,0.0001452,53.2174,333.9954,46.2461,26.8292,-0.023543,-0.00657657,0.0,0 STARLINK-3291,1 50175U 21125V   22067.58334491 -.00657657  00000-0 -23543-1 0  9999,2 50175  53.2174 333.9954 0001452  46.2461  26.8292 15.30685918  3663,6851.901999999999,94.075,474.761,472.772,0.0
50175.0,STARLINK-3291,PAYLOAD,2022-03-08 22:00:00,15.30220561,0.0001693,53.2175,332.4489,41.3899,69.2469,-0.023968,-0.00659757,0.0,0 STARLINK-3291,1 50175U 21125V   22067.91667824 -.00659757  00000-0 -23968-1 0  9999,2 50175  53.2175 332.4489 0001693  41.3899  69.2469 15.30220561  3687,6853.291,94.104,476.316,473.995,0.0
50175.0,STARLINK-3291,PAYLOAD,2022-03-09 06:00:00,15.29753605,0.0001761999999999,53.2171,330.9027,40.4107,107.2275,-0.02426,-0.0065828999999999,0.0,0 STARLINK-3291,1 50175U 21125V   22068.25001157 -.00658290  00000-0 -24260-1 0  9995,2 50175  53.2171 330.9027 0001762  40.4107 107.2275 15.29753605 15479,6854.685,94.133,477.758,475.342,0.0
50175.0,STARLINK-3291,PAYLOAD,2022-03-09 14:00:01,15.29287146,0.0001539,53.2172,329.3553,52.8637,131.217,-0.024641,-0.00658952,0.0,0 STARLINK-3291,1 50175U 21125V   22068.58334491 -.00658952  00000-0 -24641-1 0  9999,2 50175  53.2172 329.3553 0001539  52.8637 131.2170 15.29287146  3686,6856.079000000002,94.162,478.999,476.889,0.0
50175.0,STARLINK-3291,PAYLOAD,2022-03-09 22:00:01,15.28818999,0.0001665,53.2175,327.8121,51.094,168.9309,-0.024893,-0.0065634,0.0,0 STARLINK-3291,1 50175U 21125V   22068.91668981 -.00656340  00000-0 -24893-1 0  9998,2 50175  53.2175 327.8121 0001665  51.0940 168.9309 15.28818999  3654,6857.479,94.19,480.485,478.202,0.0
50175.0,STARLINK-3291,PAYLOAD,2022-03-10 06:00:00,15.28252802,0.0001493,53.2162,326.2707,57.5979,197.7357,-0.01989,-0.00518115,0.0,0 STARLINK-3291,1 50175U 21125V   22069.25001157 -.00518115  00000-0 -19890-1 0  9990,2 50175  53.2162 326.2707 0001493  57.5979 197.7357 15.28252802 15623,6859.172,94.225,482.061,480.013,0.0
50175.0,STARLINK-3291,PAYLOAD,2022-03-10 14:00:01,15.27887568,0.0001496,53.2172,324.7257,52.5653,237.4747,-0.025699,-0.00658277,0.0,0 STARLINK-3291,1 50175U 21125V   22069.58334491 -.00658277  00000-0 -25699-1 0  9994,2 50175  53.2172 324.7257 0001496  52.5653 237.4747 15.27887568  3628,6860.265,94.248,483.157,481.104,0.0
50175.0,STARLINK-3291,PAYLOAD,2022-03-10 20:00:01,15.27537279,0.0001626,53.2176,323.5701,51.9682,173.7738,-0.02598,-0.00658375,0.0,0 STARLINK-3291,1 50175U 21125V   22069.83334491 -.00658375  00000-0 -25980-1 0  9994,2 50175  53.2176 323.5701 0001626  51.9682 173.7738 15.27537279 15719,6861.314,94.269,484.295,482.06300000000016,0.0
50175.0,STARLINK-3291,PAYLOAD,2022-03-10 22:00:01,15.27420648,0.0001519,53.2174,323.1853,50.9638,273.3386,-0.026067,-0.00658224,0.0,0 STARLINK-3291,1 50175U 21125V   22069.91668981 -.00658224  00000-0 -26067-1 0  9997,2 50175  53.2174 323.1853 0001519  50.9638 273.3386 15.27420648  3660,6861.663000000001,94.277,484.571,482.486,0.0
50175.0,STARLINK-3291,PAYLOAD,2022-03-11 14:00:01,15.26485986,0.0001328,53.2173,320.1048,55.7334,335.2225,-0.026735,-0.00656238,0.0,0 STARLINK-3291,1 50175U 21125V   22070.58334491 -.00656238  00000-0 -26735-1 0  9993,2 50175  53.2173 320.1048 0001328  55.7334 335.2225 15.26485986  3638,6864.464,94.334,487.241,485.417,0.0
50175.0,STARLINK-3291,PAYLOAD,2022-03-11 22:00:00,15.26021969,0.0001584,53.2174,318.5686,44.8597,18.611,-0.027288,-0.00660166,0.0,0 STARLINK-3291,1 50175U 21125V   22070.91667824 -.00660166  00000-0 -27288-1 0  9998,2 50175  53.2174 318.5686 0001584  44.8597  18.6110 15.26021969 15884,6865.855,94.363,488.8080000000001,486.633,0.0
50175.0,STARLINK-3291,PAYLOAD,2022-03-12 14:00:01,15.25088501,0.0001530999999999,53.2173,315.4945,50.5734,76.2503,-0.028068,-0.00660122,0.0,0 STARLINK-3291,1 50175U 21125V   22071.58334491 -.00660122  00000-0 -28068-1 0  9992,2 50175  53.2173 315.4945 0001531  50.5734  76.2503 15.25088501  3669,6868.656999999997,94.421,491.573,489.47,0.0
50175.0,STARLINK-3291,PAYLOAD,2022-03-12 22:00:00,15.24620735,0.000167,53.2173,313.9615,50.2511,107.4071,-0.028365,-0.00657953,0.0,0 STARLINK-3291,1 50175U 21125V   22071.91667824 -.00657953  00000-0 -28365-1 0  9996,2 50175  53.2173 313.9615 0001670  50.2511 107.4071 15.24620735  3713,6870.062,94.45,493.074,490.779,0.0
50175.0,STARLINK-3291,PAYLOAD,2022-03-13 06:00:00,15.24155086,0.0001424,53.2172,312.4278,68.9328,118.9992,-0.028811,-0.0065891,0.0,0 STARLINK-3291,1 50175U 21125V   22072.25001157 -.00658910  00000-0 -28811-1 0  9995,2 50175  53.2172 312.4278 0001424  68.9328 118.9992 15.24155086 16085,6871.4609999999975,94.479,494.304,492.347,0.0
50175.0,STARLINK-3291,PAYLOAD,2022-03-13 14:00:01,15.23689036,0.00015,53.2172,310.8938,60.8389,156.8076,-0.029288,-0.00660423,0.0,0 STARLINK-3291,1 50175U 21125V   22072.58334491 -.00660423  00000-0 -29288-1 0  9992,2 50175  53.2172 310.8938 0001500  60.8389 156.8076 15.23689036  3674,6872.861999999999,94.507,495.758,493.696,0.0
50175.0,STARLINK-3291,PAYLOAD,2022-03-13 22:00:01,15.23220426,0.0001664,53.2173,309.3642,51.6729,195.1899,-0.029527,-0.00656846,0.0,0 STARLINK-3291,1 50175U 21125V   22072.91668981 -.00656846  00000-0 -29527-1 0  9993,2 50175  53.2173 309.3642 0001664  51.6729 195.1899 15.23220426  3658,6874.271,94.537,497.28,494.992,0.0
50175.0,STARLINK-3291,PAYLOAD,2022-03-14 14:00:01,15.22287201,0.0001386999999999,53.2174,306.3031,63.8051,239.6827,-0.030351,-0.00656666,0.0,0 STARLINK-3291,1 50175U 21125V   22073.58335648 -.00656666  00000-0 -30351-1 0  9995,2 50175  53.2174 306.3031 0001387  63.8051 239.6827 15.22287201 16284,6877.081,94.595,499.899,497.992,0.0
50175.0,STARLINK-3291,PAYLOAD,2022-03-14 20:00:01,15.21937194,0.0001634,53.2174,305.1585,51.9323,182.147,-0.030635,-0.00656044,0.0,0 STARLINK-3291,1 50175U 21125V   22073.83334491 -.00656044  00000-0 -30635-1 0  9993,2 50175  53.2174 305.1585 0001634  51.9323 182.1470 15.21937194  3622,6878.135,94.616,501.124,498.876,0.0
50175.0,STARLINK-3291,PAYLOAD,2022-03-15 02:00:01,15.21584293,0.0001713,53.2174,304.0138,46.179,118.2416,-0.030713,-0.00651255,0.0,0 STARLINK-3291,1 50175U 21125V   22074.08334491 -.00651255  00000-0 -30713-1 0  9997,2 50175  53.2174 304.0138 0001713  46.1790 118.2416 15.21584293  3635,6879.198,94.638,502.242,499.885,0.0
50175.0,STARLINK-3291,PAYLOAD,2022-03-15 22:00:00,15.20424007,0.0001647,53.2174,300.1995,43.6975,6.2452,-0.032326,-0.00668839,0.0,0 STARLINK-3291,1 50175U 21125V   22074.91667824 -.00668839  00000-0 -32326-1 0  9996,2 50175  53.2174 300.1995 0001647  43.6975   6.2452 15.20424007 16495,6882.698,94.71,505.696,503.429,0.0
50175.0,STARLINK-3291,PAYLOAD,2022-03-16 14:00:01,15.19488666,0.0001506999999999,53.2175,297.1514,52.8305,47.0104,-0.032994,-0.00664504,0.0,0 STARLINK-3291,1 50175U 21125V   22075.58334491 -.00664504  00000-0 -32994-1 0  9997,2 50175  53.2175 297.1514 0001507  52.8305  47.0104 15.19488666  3630,6885.522,94.769,508.425,506.349,0.0
50175.0,STARLINK-3291,PAYLOAD,2022-03-16 20:00:01,15.19139859,0.0001575,53.2174,296.0117,46.5218,341.4508,-0.033431,-0.00666377,0.0,0 STARLINK-3291,1 50175U 21125V   22075.83334491 -.00666377  00000-0 -33431-1 0  9992,2 50175  53.2174 296.0117 0001575  46.5218 341.4508 15.19139859  3629,6886.576,94.79,509.525,507.356,0.0
50175.0,STARLINK-3291,PAYLOAD,2022-03-17 06:00:00,15.185557,0.0001419999999999,53.2173,294.1106,64.3713,83.12299999999998,-0.03393,-0.0066501,0.0,0 STARLINK-3291,1 50175U 21125V   22076.25001157 -.00665010  00000-0 -33930-1 0  9996,2 50175  53.2173 294.1106 0001420  64.3713  83.1230 15.18555700 16691,6888.342,94.827,511.185,509.229,0.0
